OBJECT_NAME,OBJECT_ID,EPOCH,MEAN_MOTION,ECCENTRICITY,INCLINATION,RA_OF_ASC_NODE,ARG_OF_PERICENTER,MEAN_ANOMALY,EPHEMERIS_TYPE,CLASSIFICATION_TYPE,NORAD_CAT_ID,ELEMENT_SET_NO,REV_AT_EPOCH,BSTAR,MEAN_MOTION_DOT,MEAN_MOTION_DDOT
GEOSCAN 3 (RS92S3),2025-155T,2026-07-13T02:58:30.499968,15.36262491,.0008638,97.4543,164.3212,92.7266,267.4967,0,U,64893,999,8483,.35443E-3,.12466E-3,0
INNOSAT 3 (RS92S0),2025-155U,2026-07-13T02:14:55.812192,15.45710368,.0008329,97.4487,166.2474,95.6059,264.6140,0,U,64894,999,8496,.58527E-3,.28276E-3,0
KNACKSAT-2,1998-067XZ,2026-07-12T10:39:42.222816,15.62203060,.00081528,51.6258,167.2182,318.8485,41.1893,0,U,67683,999,2422,.37969135E-3,.33729E-3,0
