GEOSCAN 3 (RS92S3)      
1 64893U 25155T   26194.12396412  .00012466  00000+0  35443-3 0  9998
2 64893  97.4543 164.3212 0008638  92.7266 267.4967 15.36262491 84833
INNOSAT 3 (RS92S0)      
1 64894U 25155U   26194.09370153  .00028276  00000+0  58527-3 0  9993
2 64894  97.4487 166.2474 0008329  95.6059 264.6140 15.45710368 84968
KNACKSAT-2              
1 67683U 98067XZ  26193.44423869  .00033729  00000+0  37969-3 0  9991
2 67683  51.6258 167.2182 0008152 318.8485  41.1893 15.62203060 24220
